[
  {
    "property_id": 1525674,
    "council": "CARDINIA",
    "council_property_number": "2188100300",
    "full_address": "8 CLOVERLEIGH AVENUE EMERALD 3782",
    "latitude": -37.9373447811622,
    "lga_code": 311,
    "longitude": 145.449895817713,
    "postcode": "3782"
  },
  {
    "property_id": 52858603,
    "council": "ALPINE",
    "council_property_number": "7567",
    "full_address": "BOGONG HIGH PLAINS ROAD BOGONG 3699",
    "latitude": -36.785034305,
    "lga_code": 300,
    "longitude": 147.19769273,
    "postcode": "3699"
  },
  {
    "property_id": 45453823,
    "council": "ALPINE",
    "council_property_number": null,
    "full_address": "UPPER HUMFFRAY ROAD SELWYN 3737",
    "latitude": -37.1029747328265,
    "lga_code": 300,
    "longitude": 146.941079580425,
    "postcode": "3737"
  },
  {
    "property_id": 204878364,
    "council": "CASEY",
    "council_property_number": "99936",
    "full_address": "24-32 WESTPOOL DRIVE HALLAM 3803",
    "latitude": -38.0131738422674,
    "lga_code": 312,
    "longitude": 145.263600794538,
    "postcode": "3803"
  },
  {
    "property_id": 205761723,
    "council": "CASEY",
    "council_property_number": "97563",
    "full_address": "5 MARIJA CRESCENT BERWICK 3806",
    "latitude": -38.0692907715629,
    "lga_code": 312,
    "longitude": 145.334754695771,
    "postcode": "3806"
  },
  {
    "property_id": 150490812,
    "council": "MORNINGTON PENINSULA",
    "council_property_number": "114673",
    "full_address": "10 ELLABELLA WAY MORNINGTON 3931",
    "latitude": -38.2410249883674,
    "lga_code": 352,
    "longitude": 145.068803478817,
    "postcode": "3931"
  },
  {
    "property_id": 52499035,
    "council": "ALPINE",
    "council_property_number": null,
    "full_address": "VICTORIA RIVER TRACK COBUNGRA 3898",
    "latitude": -37.0990581971858,
    "lga_code": 300,
    "longitude": 147.372837561945,
    "postcode": "3898"
  },
  {
    "property_id": 2047298,
    "council": "CASEY",
    "council_property_number": "67059",
    "full_address": "8 LANGBOURNE DRIVE NARRE WARREN SOUTH 3805",
    "latitude": -38.056789811963,
    "lga_code": 312,
    "longitude": 145.284976749942,
    "postcode": "3805"
  },
  {
    "property_id": 1451675,
    "council": "MORNINGTON PENINSULA",
    "council_property_number": "77527",
    "full_address": "7 MORRISONS AVENUE MOUNT MARTHA 3934",
    "latitude": -38.2517901631683,
    "lga_code": 352,
    "longitude": 145.029728402704,
    "postcode": "3934"
  },
  {
    "property_id": 1162737,
    "council": "MORNINGTON PENINSULA",
    "council_property_number": "81707",
    "full_address": "6 JENSEN COURT CRIB POINT 3919",
    "latitude": -38.3495168499273,
    "lga_code": 352,
    "longitude": 145.190641696783,
    "postcode": "3919"
  },
  {
    "property_id": 1511510,
    "council": "CARDINIA",
    "council_property_number": "1094500500",
    "full_address": "265 BESSIE CREEK ROAD NAR NAR GOON NORTH 3812",
    "latitude": -38.046315453557,
    "lga_code": 311,
    "longitude": 145.56667809334,
    "postcode": "3812"
  },
  {
    "property_id": 1165851,
    "council": "MORNINGTON PENINSULA",
    "council_property_number": "82916",
    "full_address": "42 PACIFIC DRIVE BALNARRING 3926",
    "latitude": -38.372036925735,
    "lga_code": 352,
    "longitude": 145.114365892253,
    "postcode": "3926"
  },
  {
    "property_id": 1166627,
    "council": "MORNINGTON PENINSULA",
    "council_property_number": "88698",
    "full_address": "26 PINEWOOD DRIVE HASTINGS 3915",
    "latitude": -38.3014308974541,
    "lga_code": 352,
    "longitude": 145.186315102097,
    "postcode": "3915"
  },
  {
    "property_id": 1166044,
    "council": "MORNINGTON PENINSULA",
    "council_property_number": "92996",
    "full_address": "41 PARK LANE SOMERVILLE 3912",
    "latitude": -38.2319676862907,
    "lga_code": 352,
    "longitude": 145.177406279515,
    "postcode": "3912"
  },
  {
    "property_id": 209403680,
    "council": "CASEY",
    "council_property_number": "101318",
    "full_address": "36 GREENAWAY TERRACE CRANBOURNE EAST 3977",
    "latitude": -38.1109329799825,
    "lga_code": 312,
    "longitude": 145.301882269907,
    "postcode": "3977"
  },
  {
    "property_id": 5281066,
    "council": "WODONGA",
    "council_property_number": "312147",
    "full_address": "12 PRENDERGAST STREET WEST WODONGA 3690",
    "latitude": -36.1371208068458,
    "lga_code": 374,
    "longitude": 146.84519550781,
    "postcode": "3690"
  },
  {
    "property_id": 173669948,
    "council": "CASEY",
    "council_property_number": "62766",
    "full_address": "17 THE GATEWAY BERWICK 3806",
    "latitude": -38.020860353419,
    "lga_code": 312,
    "longitude": 145.318763630918,
    "postcode": "3806"
  },
  {
    "property_id": 1454636,
    "council": "MORNINGTON PENINSULA",
    "council_property_number": "60413",
    "full_address": "35 QUEEN STREET MORNINGTON 3931",
    "latitude": -38.2204139888352,
    "lga_code": 352,
    "longitude": 145.034879485793,
    "postcode": "3931"
  },
  {
    "property_id": 1623061,
    "council": "CARDINIA",
    "council_property_number": "2387900700",
    "full_address": "15 HEROES AVENUE EMERALD 3782",
    "latitude": -37.9325840055048,
    "lga_code": 311,
    "longitude": 145.444291599465,
    "postcode": "3782"
  },
  {
    "property_id": 1163410,
    "council": "MORNINGTON PENINSULA",
    "council_property_number": "92513",
    "full_address": "2 LANCASTER COURT SOMERVILLE 3912",
    "latitude": -38.2268608616353,
    "lga_code": 352,
    "longitude": 145.164874472234,
    "postcode": "3912"
  }
]
